[Satellite]
VERSION=1.1
NAME=SL-3 R/B
NICKNAME=SL-3 R/B
TLE1=1 12904U 81103B   18021.19917682 -.00000009  00000-0 -22556-5 0  9990
TLE2=2 12904  81.1756  26.5550 0029763  68.9566 291.4835 15.05432882525626
